#dP2024  8 30  0  0  0.00000000      96 __u+U IGS20 FIT  IAC
## 2329 432000.00000000   900.00000000 60552 0.0000000000000
+  133   C01C02C03C04C05C06C07C08C09C10C11C12C13C14C16C19C20
+        C21C22C23C24C25C26C27C28C29C30C32C33C34C35C36C37C38
+        C39C40C41C42C43C44C45C59C60C62E02E03E04E05E06E07E08
+        E09E10E11E12E13E14E15E18E19E21E24E25E26E27E29E30E31
+        E33E34E36G01G02G03G04G05G06G07G08G09G10G11G12G13G14
+        G15G16G17G18G19G20G21G22G23G24G25G26G27G28G29G30G31
+        G32J02J03J04J07R01R02R03R04R05R06R07R08R09R10R11R12
+        R13R14R15R16R17R18R19R20R21R22R23R24R25R26  0  0  0
++        17 17 17 17 17  9 10  9 10 10  8  8  9  9  9  7  7
++         7  7  7  7  7 16  7  7  7  7  7  7  7  7  7  7  8
++         8  8  7  7  7  7  7 18 17 18  4  4  4  4  5  4  4
++         4  4  4  4  4  4  4  4  4  4  5  4  5  4  4  4  5
++         5  4  4  6  4  4  4  3  4  4  4  4  4  4  4  4  4
++         4  4  4  4  4  4  4  4  4  4  4  4  4  4  4  4  3
++         4 11 11 12 17  7  6  6  6  6 15  6  6  6 15  6  6
++        15  6  6  6  6  6  7  7  6  6 15  6  8  8  0  0  0
%c M  cc GPS ccc cccc cccc cccc cccc ccccc ccccc ccccc ccccc
%c cc cc ccc ccc cccc cccc cccc cccc ccccc ccccc ccccc ccccc
%f  0.0000000  0.000000000  0.00000000000  0.000000000000000
%f  0.0000000  0.000000000  0.00000000000  0.000000000000000
%i    0    0    0    0      0      0      0      0         0
%i    0    0    0    0      0      0      0      0         0
/* INFORMATION & ANALYSIS CENTER (IAC)            RAPID DATA
/* S/V CLOCKS ARE ALIGNED TO GNSS TIME                      
/* G:C1WC2W R:C1PC2P E:C1XC5X C:C2IC6I J:C1CC2S             
/* PCV:IGS20_2317 OL/AL:FES2004  NONE     YN ORB:CoN CLK:CoN
*  2024 08 30  1 15  0.00000000
PC01 -34309.422710  24488.676400   1131.104324    918.698829
PC02   4396.100565  41913.517712     40.655404    920.851828
PC03 -14847.440777  39433.420164    768.059367    820.920021
PC04 -39598.606602  14376.003184   1493.311874   -751.202951
PC05  21890.104522  36049.323190   -447.970698   -412.713889
PC06 -15037.875501  24608.082460 -30771.955362    729.664097
PC07 -11518.984280  40307.076608  -2825.989030   -417.655694
PC08   2188.056603  28376.861422  31174.689039   -481.903423
PC09  -5095.490558  24472.389349 -33525.223544   -254.126093
PC10  -5597.161341  41320.507902   3772.261750   -151.511912
PC11  25208.385891 -10858.752564   5168.569694    737.239531
PC12  18990.069530   4180.457330  20062.110735   -265.818827
PC13   8932.848204  32313.066299  25909.801619    436.139463
PC14  14682.865007  -8192.352940 -22282.681498   -137.985047
PC16 -18618.829941  23535.656497 -29435.502633   -765.635422
PC19 -11380.737986  17900.029488  18131.276760   -930.459169
PC20 -15591.679598  -1015.007465  23120.711986   -860.195115
PC21  10714.410540  21263.611763 -14530.697320   -937.007107
PC22   -365.456495  27789.412410   2349.319830    107.568694
PC23  -1296.210772 -17990.990623  21300.848760   -823.996946
PC24  25905.889050   7208.721597   7503.056791    843.247381
PC25  17402.909194  -7868.315616  20344.748511    492.093467
PC26  19570.739447  17349.237530  -9800.929101 999999.999999
PC27 -11705.247735 -11418.712442 -22631.139708    361.754209
PC28   5070.365222 -19376.365128 -19428.941667    279.774595
PC29 -21745.034450  17282.307692   2649.065898    328.514619
PC30 -23404.026179   3421.607723 -14826.217157   -183.632060
PC32 -10831.683922 -21308.267592  14417.637032   -717.600891
PC33  11321.181475 -17915.275754 -18173.299605   -971.082335
PC34  23930.607439  -4855.302535  13487.947455    509.961488
PC35  -4862.002001  19765.692972  19089.063613    274.448196
PC36 -17196.571895   7807.477449 -20514.690944    171.877461
PC37 -19148.349165 -17761.610857   9805.110758   -902.945614
PC38  -7002.911491  24009.422795  34018.915500    176.286173
PC39 -23829.832693  23634.484767 -25605.824705     -9.699832
PC40 -17957.708154  37578.037656  -5326.116689    -88.345902
PC41    824.234225 -27710.852327  -3231.910795   -917.253328
PC42  15618.740516   3048.154681 -22889.096665   -469.597782
PC43  22194.832787 -16818.055586  -1721.172592     84.016070
PC44  12058.947453  11187.166527  22526.825151    578.080926
PC45    813.680218  17756.944285 -21515.624797   -123.963117
PC59 -32271.324177  27107.067960    888.780068     -0.165878
PC60   7329.501020  41512.212761   1245.205348     -0.074413
PC62 -39585.721519  14406.772686  -1067.824593     -0.529643
PE02  -2561.412452 -25901.429283  14087.924824    155.249532
PE03   8029.967387 -26552.317458  10340.915668   -136.950292
PE04   8633.425476  16480.040364 -23020.289597    -20.393843
PE05  19527.294644 -20727.921808  -8088.916287   4779.586929
PE06  15547.777539   7296.697691 -24125.370704    -20.456325
PE07 -19583.590654   2387.131913  22062.123621   -139.267070
PE08  -7831.649742 -17137.612810  22826.359642   -327.216167
PE09  19462.123555  -2387.547291 -22183.800656   -570.863882
PE10  25935.349199   8331.025383  11593.767855   -652.435953
PE11  29491.233667   2045.570426   1478.670424   1865.081655
PE12  18957.876511  12827.219983  18759.747848  -1188.046522
PE13 -29429.512205  -2389.127952  -2069.875303    -24.291740
PE14  -9654.176685 -19649.782003 -21803.357626    194.826535
PE15 -18381.558041 -12997.220925 -19212.942676   -123.968150
PE18  18065.824602   2385.648665  19364.514896    489.071356
PE19  -9685.802229  26591.494893  -8669.671056    538.455649
PE21 -12041.845568  12650.556321 -23892.580695   -613.902610
PE24  20164.272434   8719.612312  19836.891781   -958.536726
PE25  12331.315685 -12230.331337  23979.146363      8.524593
PE26 -22684.745885   9803.455456  16288.046380    556.107321
PE27 -20128.000285  -8493.094566 -19962.704784   -439.175287
PE29 -19482.137021  20937.450952   7640.559381    -26.428068
PE30 -16189.060032 -24397.206975  -4317.814926   -663.344792
PE31  16259.432810  24353.745153   4336.570914    -34.163314
PE33  -3804.393239  15761.760377  24764.336835     14.970518
PE34   3269.649798 -15820.640475 -24808.482753   -131.348029
PE36  23098.692152  -9403.988242 -15943.543885   -276.108331
PG01  14192.415332  -5751.487039  21342.821603    209.821293
PG02  -8168.456617 -13597.535103 -20886.403418   -368.791101
PG03 -12685.037457 -23350.587409  -1774.451443    519.019014
PG04  -3945.593395 -18515.840618  18584.953797    433.848099
PG05   1517.635087  21257.787150  15620.522283   -184.877163
PG06 -24857.945093   5373.011023   7912.010682     65.721975
PG07 -23479.781606  -7380.049329  11080.298157    -44.516149
PG08   4186.879423 -24094.912399  -9917.750026    334.199651
PG09 -12704.039017  -8461.170679  21641.797017    334.833463
PG10  16393.100617    491.281158 -20757.771734   -108.974276
PG11 -14046.210792  12586.853932  18704.527615   -728.311418
PG12   8972.176100  24613.839045  -4790.607457   -534.179930
PG13 -13215.161212  22523.601327  -4303.913524    673.659035
PG14 -18231.108173  -4287.747590 -18871.977908    483.857686
PG15   -683.975833  24542.809983 -10423.770111    198.320256
PG16   4410.289799 -18861.764182  17631.519707   -194.988157
PG17 -18624.888821   7606.804668 -17008.950509    641.555894
PG18  23820.297729   6667.226034   9983.408758   -649.964204
PG19 -19261.863184  14148.884756 -11277.847775    531.273044
PG20  -6873.850735  14746.363014  21084.525193    371.164902
PG21  -2373.289156 -14826.105853 -21498.798419    102.701213
PG22 -14532.428976   4340.344392 -21372.413106    -56.580886
PG23  19060.576193  12805.113247 -13507.925211    308.615360
PG24   5996.962913  15209.714441 -21415.248701   -486.752126
PG25  17081.801678  19695.656399   5413.730466    499.500885
PG26  13115.383300  -8823.575450  21190.695941     90.163342
PG27  12394.949718 -23225.747820    -84.224749    -33.545300
PG28  25505.206195  -5132.399038   5346.034127   -391.829618
PG29   9545.727559  12296.191006  21460.960827   -581.087977
PG30 -26700.189620    124.908693    685.174211   -330.916623
PG31  18851.573976 -10839.491971  15282.560226   -225.321285
PG32  18153.863751  -9452.966922 -16602.870741   -601.814826
PJ02 -20974.002132  24429.787253 -22551.008098     -0.894279
PJ03 -30826.600550  25213.027256  18877.220104     -2.388493
PJ04 -27275.935959  29309.835729  19105.279144     22.425369
PJ07 -25378.962729  33664.632323    -39.197712     -0.000926
PR01    449.163854 -25088.301123   4613.288260     96.092160
PR02  -6627.118270 -15712.386336  18980.535378    -24.381081
PR03 -11150.871691   2718.740014  22826.578837    106.582065
PR04  -9411.161506  18982.017737  14241.432000    252.258790
PR05  -2831.101887  25286.599816  -1988.681736    136.873437
PR06   7858.484111  14365.292134 -19583.922866   -178.254969
PR07  11152.026069  -3267.751434 -22666.443647     89.830993
PR08   9200.981835 -19231.610445 -13922.547288     -6.397421
PR09  19582.602417  15971.996951  -3107.975962    206.220687
PR10  21023.862839   8741.035011  11577.497125   -210.203547
PR11  11195.856204  -4892.419196  22402.636300     13.296737
PR12  -6629.273457 -16247.362327  18538.304293     44.231476
PR13 -18140.857108 -16972.037485   5779.600830    -50.902861
PR14 -20447.010106  -7122.675870 -13486.367101     26.879825
PR15  -9920.259249   6153.815709 -22656.161510     76.369447
PR16   6596.964640  16044.120565 -18669.913815     28.685436
PR17 -23466.457315   5333.607652  -8371.655213    117.534852
PR18 -20959.992114  12102.647726   8129.337233    159.505919
PR19  -9878.963892  12833.031835  19701.832055   -289.450346
PR20  12094.958373   5992.918444  21645.978230   -118.377314
PR21  23401.172835  -4819.276362   8988.676889   -130.138113
PR22  20541.888310 -12033.595226  -9128.145071     58.840750
PR23   6610.632178 -12684.568373 -21128.233404   -131.299513
PR24 -13005.107010  -5539.007750 -21208.701341    -69.892429
PR25  23812.067362  -4537.668776   7994.053805   -101.046384
PR26   9510.589624 -18178.350017 -15155.882182     14.016891
EOF
